FLOCK 4Q-11             
1 58273U 23174T   26073.48993949  .00030241  00000+0  63149-3 0  9990
2 58273  97.3896 160.1860 0007735 142.0438 218.1358 15.45442371130946
FLOCK 4Q-36             
1 58274U 23174U   26073.51197960  .00036528  00000+0  61766-3 0  9991
2 58274  97.3878 162.9127 0007816 131.0323 229.1606 15.51474570131126
FLOCK 4Q-12             
1 58275U 23174V   26073.51660273  .00114114  00000+0  18109-2 0  9994
2 58275  97.3874 162.8124 0004996 141.3310 218.8301 15.52950191131143
FLOCK 4Q-28             
1 58280U 23174AA  26073.47550465  .00036045  00000+0  65621-3 0  9994
2 58280  97.3914 161.9748 0007416 137.4860 222.6966 15.49385670131052
FLOCK 4Q-27             
1 58282U 23174AC  26073.47140481  .00034695  00000+0  63256-3 0  9990
2 58282  97.3838 161.5038 0006877 135.1049 225.0760 15.49355715131068
FLOCK 4Q-26             
1 58284U 23174AE  26073.50459561  .00037081  00000+0  63272-3 0  9998
2 58284  97.3895 162.9899 0007283 134.8303 225.3542 15.51220632131124
FLOCK 4Q-31             
1 58285U 23174AF  26073.47257009  .00047788  00000+0  82528-3 0  9998
2 58285  97.3935 162.5987 0007698 137.3518 222.8332 15.50823862131076
FLOCK 4Q-30             
1 58286U 23174AG  26073.20187335  .00044476  00000+0  76400-3 0  9997
2 58286  97.3947 162.5038 0007131 137.5852 222.5952 15.50994697131049
PELICAN-1               
1 58296U 23174AS  26072.22151359  .00029201  00000+0  31803-3 0  9993
2 58296  97.3987 167.1452 0009663 250.9049 109.1163 15.63326024131114
FLOCK 4Q-25             
1 58303U 23174AZ  26073.47986140  .00053842  00000+0  74177-3 0  9993
2 58303  97.3860 163.7135 0005325 121.7271 238.4504 15.57056413131217
FLOCK 4Q-29             
1 58304U 23174BA  26073.62159061  .00040996  00000+0  73197-3 0  9992
2 58304  97.3934 162.5186 0007410 127.6566 232.5359 15.49914065131087
FLOCK 4Q-22             
1 58306U 23174BC  26073.50897105  .00046376  00000+0  75186-3 0  9997
2 58306  97.3841 162.5999 0006275 131.4193 228.7600 15.52616304131147
FLOCK 4Q-23             
1 58307U 23174BD  26073.52038709  .00057038  00000+0  82130-3 0  9991
2 58307  97.3952 164.2060 0006726 125.7969 234.3911 15.55835697131180
FLOCK 4Q-33             
1 58308U 23174BE  26073.56270898  .00046884  00000+0  78602-3 0  9999
2 58308  97.3871 162.5852 0007450 119.7277 240.4717 15.51665227131134
FLOCK 4Q-35             
1 58309U 23174BF  26073.48842758  .00042610  00000+0  74285-3 0  9997
2 58309  97.3896 162.6677 0007831 133.8921 226.2979 15.50579906131100
FLOCK 4Q-34             
1 58316U 23174BN  26073.20906963  .00053148  00000+0  75952-3 0  9994
2 58316  97.3842 163.2781 0006579 126.9272 233.2586 15.56059337131145
