[{"OBJECT_NAME":"FLOCK 4Q-11","OBJECT_ID":"2023-174T","EPOCH":"2026-03-14T11:45:30.771936","MEAN_MOTION":15.45442371,"ECCENTRICITY":0.0007735,"INCLINATION":97.3896,"RA_OF_ASC_NODE":160.186,"ARG_OF_PERICENTER":142.0438,"MEAN_ANOMALY":218.1358,"EPHEMERIS_TYPE":0,"CLASSIFICATION_TYPE":"U","NORAD_CAT_ID":58273,"ELEMENT_SET_NO":999,"REV_AT_EPOCH":13094,"BSTAR":0.00063149102,"MEAN_MOTION_DOT":0.00030241,"MEAN_MOTION_DDOT":0},{"OBJECT_NAME":"FLOCK 4Q-36","OBJECT_ID":"2023-174U","EPOCH":"2026-03-14T12:17:15.037440","MEAN_MOTION":15.5147457,"ECCENTRICITY":0.00078166,"INCLINATION":97.3878,"RA_OF_ASC_NODE":162.9127,"ARG_OF_PERICENTER":131.0323,"MEAN_ANOMALY":229.1606,"EPHEMERIS_TYPE":0,"CLASSIFICATION_TYPE":"U","NORAD_CAT_ID":58274,"ELEMENT_SET_NO":999,"REV_AT_EPOCH":13112,"BSTAR":0.00061766213,"MEAN_MOTION_DOT":0.00036528,"MEAN_MOTION_DDOT":0},{"OBJECT_NAME":"FLOCK 4Q-12","OBJECT_ID":"2023-174V","EPOCH":"2026-03-14T12:23:54.475872","MEAN_MOTION":15.52950191,"ECCENTRICITY":0.00049962,"INCLINATION":97.3874,"RA_OF_ASC_NODE":162.8124,"ARG_OF_PERICENTER":141.331,"MEAN_ANOMALY":218.8301,"EPHEMERIS_TYPE":0,"CLASSIFICATION_TYPE":"U","NORAD_CAT_ID":58275,"ELEMENT_SET_NO":999,"REV_AT_EPOCH":13114,"BSTAR":0.0018108743,"MEAN_MOTION_DOT":0.00114114,"MEAN_MOTION_DDOT":0},{"OBJECT_NAME":"FLOCK 4Q-28","OBJECT_ID":"2023-174AA","EPOCH":"2026-03-14T11:24:43.601760","MEAN_MOTION":15.4938567,"ECCENTRICITY":0.00074167,"INCLINATION":97.3914,"RA_OF_ASC_NODE":161.9748,"ARG_OF_PERICENTER":137.486,"MEAN_ANOMALY":222.6966,"EPHEMERIS_TYPE":0,"CLASSIFICATION_TYPE":"U","NORAD_CAT_ID":58280,"ELEMENT_SET_NO":999,"REV_AT_EPOCH":13105,"BSTAR":0.00065620809,"MEAN_MOTION_DOT":0.00036045,"MEAN_MOTION_DDOT":0},{"OBJECT_NAME":"FLOCK 4Q-27","OBJECT_ID":"2023-174AC","EPOCH":"2026-03-14T11:18:49.375584","MEAN_MOTION":15.49355715,"ECCENTRICITY":0.00068771,"INCLINATION":97.3838,"RA_OF_ASC_NODE":161.5038,"ARG_OF_PERICENTER":135.1049,"MEAN_ANOMALY":225.076,"EPHEMERIS_TYPE":0,"CLASSIFICATION_TYPE":"U","NORAD_CAT_ID":58282,"ELEMENT_SET_NO":999,"REV_AT_EPOCH":13106,"BSTAR":0.0006325643,"MEAN_MOTION_DOT":0.00034695,"MEAN_MOTION_DDOT":0},{"OBJECT_NAME":"FLOCK 4Q-26","OBJECT_ID":"2023-174AE","EPOCH":"2026-03-14T12:06:37.060704","MEAN_MOTION":15.51220632,"ECCENTRICITY":0.00072835,"INCLINATION":97.3895,"RA_OF_ASC_NODE":162.9899,"ARG_OF_PERICENTER":134.8303,"MEAN_ANOMALY":225.3542,"EPHEMERIS_TYPE":0,"CLASSIFICATION_TYPE":"U","NORAD_CAT_ID":58284,"ELEMENT_SET_NO":999,"REV_AT_EPOCH":13112,"BSTAR":0.00063272164,"MEAN_MOTION_DOT":0.00037081,"MEAN_MOTION_DDOT":0},{"OBJECT_NAME":"FLOCK 4Q-31","OBJECT_ID":"2023-174AF","EPOCH":"2026-03-14T11:20:30.055776","MEAN_MOTION":15.50823862,"ECCENTRICITY":0.00076984,"INCLINATION":97.3935,"RA_OF_ASC_NODE":162.5987,"ARG_OF_PERICENTER":137.3518,"MEAN_ANOMALY":222.8332,"EPHEMERIS_TYPE":0,"CLASSIFICATION_TYPE":"U","NORAD_CAT_ID":58285,"ELEMENT_SET_NO":999,"REV_AT_EPOCH":13107,"BSTAR":0.00082527734,"MEAN_MOTION_DOT":0.00047788,"MEAN_MOTION_DDOT":0},{"OBJECT_NAME":"FLOCK 4Q-30","OBJECT_ID":"2023-174AG","EPOCH":"2026-03-14T04:50:41.857440","MEAN_MOTION":15.50994697,"ECCENTRICITY":0.00071312,"INCLINATION":97.3947,"RA_OF_ASC_NODE":162.5038,"ARG_OF_PERICENTER":137.5852,"MEAN_ANOMALY":222.5952,"EPHEMERIS_TYPE":0,"CLASSIFICATION_TYPE":"U","NORAD_CAT_ID":58286,"ELEMENT_SET_NO":999,"REV_AT_EPOCH":13104,"BSTAR":0.00076399765,"MEAN_MOTION_DOT":0.00044476,"MEAN_MOTION_DDOT":0},{"OBJECT_NAME":"PELICAN-1","OBJECT_ID":"2023-174AS","EPOCH":"2026-03-13T05:18:58.774176","MEAN_MOTION":15.63326024,"ECCENTRICITY":0.00096635,"INCLINATION":97.3987,"RA_OF_ASC_NODE":167.1452,"ARG_OF_PERICENTER":250.9049,"MEAN_ANOMALY":109.1163,"EPHEMERIS_TYPE":0,"CLASSIFICATION_TYPE":"U","NORAD_CAT_ID":58296,"ELEMENT_SET_NO":999,"REV_AT_EPOCH":13111,"BSTAR":0.00031803204,"MEAN_MOTION_DOT":0.00029201,"MEAN_MOTION_DDOT":0},{"OBJECT_NAME":"FLOCK 4Q-25","OBJECT_ID":"2023-174AZ","EPOCH":"2026-03-14T11:31:00.024960","MEAN_MOTION":15.57056413,"ECCENTRICITY":0.00053259,"INCLINATION":97.386,"RA_OF_ASC_NODE":163.7135,"ARG_OF_PERICENTER":121.7271,"MEAN_ANOMALY":238.4504,"EPHEMERIS_TYPE":0,"CLASSIFICATION_TYPE":"U","NORAD_CAT_ID":58303,"ELEMENT_SET_NO":999,"REV_AT_EPOCH":13121,"BSTAR":0.00074177392,"MEAN_MOTION_DOT":0.00053842,"MEAN_MOTION_DDOT":0},{"OBJECT_NAME":"FLOCK 4Q-29","OBJECT_ID":"2023-174BA","EPOCH":"2026-03-14T14:55:05.428704","MEAN_MOTION":15.49914065,"ECCENTRICITY":0.00074105,"INCLINATION":97.3934,"RA_OF_ASC_NODE":162.5186,"ARG_OF_PERICENTER":127.6566,"MEAN_ANOMALY":232.5359,"EPHEMERIS_TYPE":0,"CLASSIFICATION_TYPE":"U","NORAD_CAT_ID":58304,"ELEMENT_SET_NO":999,"REV_AT_EPOCH":13108,"BSTAR":0.00073196872,"MEAN_MOTION_DOT":0.00040996,"MEAN_MOTION_DDOT":0},{"OBJECT_NAME":"FLOCK 4Q-22","OBJECT_ID":"2023-174BC","EPOCH":"2026-03-14T12:12:55.098720","MEAN_MOTION":15.52616304,"ECCENTRICITY":0.00062758,"INCLINATION":97.3841,"RA_OF_ASC_NODE":162.5999,"ARG_OF_PERICENTER":131.4193,"MEAN_ANOMALY":228.76,"EPHEMERIS_TYPE":0,"CLASSIFICATION_TYPE":"U","NORAD_CAT_ID":58306,"ELEMENT_SET_NO":999,"REV_AT_EPOCH":13114,"BSTAR":0.00075185772,"MEAN_MOTION_DOT":0.00046376,"MEAN_MOTION_DDOT":0},{"OBJECT_NAME":"FLOCK 4Q-23","OBJECT_ID":"2023-174BD","EPOCH":"2026-03-14T12:29:21.444576","MEAN_MOTION":15.55835697,"ECCENTRICITY":0.00067261,"INCLINATION":97.3952,"RA_OF_ASC_NODE":164.206,"ARG_OF_PERICENTER":125.7969,"MEAN_ANOMALY":234.3911,"EPHEMERIS_TYPE":0,"CLASSIFICATION_TYPE":"U","NORAD_CAT_ID":58307,"ELEMENT_SET_NO":999,"REV_AT_EPOCH":13118,"BSTAR":0.00082130215,"MEAN_MOTION_DOT":0.00057038,"MEAN_MOTION_DDOT":0},{"OBJECT_NAME":"FLOCK 4Q-33","OBJECT_ID":"2023-174BE","EPOCH":"2026-03-14T13:30:18.055872","MEAN_MOTION":15.51665227,"ECCENTRICITY":0.00074504,"INCLINATION":97.3871,"RA_OF_ASC_NODE":162.5852,"ARG_OF_PERICENTER":119.7277,"MEAN_ANOMALY":240.4717,"EPHEMERIS_TYPE":0,"CLASSIFICATION_TYPE":"U","NORAD_CAT_ID":58308,"ELEMENT_SET_NO":999,"REV_AT_EPOCH":13113,"BSTAR":0.00078602154,"MEAN_MOTION_DOT":0.00046884,"MEAN_MOTION_DDOT":0},{"OBJECT_NAME":"FLOCK 4Q-35","OBJECT_ID":"2023-174BF","EPOCH":"2026-03-14T11:43:20.142912","MEAN_MOTION":15.50579906,"ECCENTRICITY":0.00078317,"INCLINATION":97.3896,"RA_OF_ASC_NODE":162.6677,"ARG_OF_PERICENTER":133.8921,"MEAN_ANOMALY":226.2979,"EPHEMERIS_TYPE":0,"CLASSIFICATION_TYPE":"U","NORAD_CAT_ID":58309,"ELEMENT_SET_NO":999,"REV_AT_EPOCH":13110,"BSTAR":0.00074285125,"MEAN_MOTION_DOT":0.0004261,"MEAN_MOTION_DDOT":0},{"OBJECT_NAME":"FLOCK 4Q-34","OBJECT_ID":"2023-174BN","EPOCH":"2026-03-14T05:01:03.616032","MEAN_MOTION":15.56059337,"ECCENTRICITY":0.00065798,"INCLINATION":97.3842,"RA_OF_ASC_NODE":163.2781,"ARG_OF_PERICENTER":126.9272,"MEAN_ANOMALY":233.2586,"EPHEMERIS_TYPE":0,"CLASSIFICATION_TYPE":"U","NORAD_CAT_ID":58316,"ELEMENT_SET_NO":999,"REV_AT_EPOCH":13114,"BSTAR":0.00075951849,"MEAN_MOTION_DOT":0.00053148,"MEAN_MOTION_DDOT":0}]
